ONEWEB-0675             
1 55834U 23029AQ  26102.09498351  .00000134  00000+0  30146-3 0  9995
2 55834  87.9172 318.1581 0001571  76.2187 283.9121 13.19727300150200
ONEWEB-0720             
1 55835U 23029AR  26102.08708493  .00000187  00000+0  43381-3 0  9999
2 55835  87.9168 318.1601 0002077  82.6466 277.4902 13.19728029150127
ONEWEB-0537             
1 56046U 23043A   26102.07724446  .00000072  00000+0  15374-3 0  9999
2 56046  87.9060 241.9061 0001587 100.7878 259.3432 13.16593788150261
ONEWEB-0538             
1 56047U 23043B   26102.14687371  .00000090  00000+0  20221-3 0  9990
2 56047  87.9059 241.8941 0001744  92.6172 267.5158 13.16591068150284
ONEWEB-0546             
1 56048U 23043C   26101.75425018  .00000004  00000+0 -22337-4 0  9992
2 56048  87.9059 241.9715 0001114 108.2837 251.8415 13.16592354150223
ONEWEB-0547             
1 56049U 23043D   26102.16514296  .00000043  00000+0  72134-4 0  9998
2 56049  87.9204 257.1221 0001940  93.4461 266.6895 13.21824068149503
ONEWEB-0548             
1 56050U 23043E   26102.31076821  .00000149  00000+0  35656-3 0  9998
2 56050  87.9056 241.8587 0002069 114.1926 245.9422 13.16597174150298
ONEWEB-0549             
1 56051U 23043F   26102.15929096  .00000166  00000+0  37032-3 0  9991
2 56051  87.9190 257.1342 0001838  90.1496 269.9848 13.21826121149508
ONEWEB-0550             
1 56052U 23043G   26102.14582658  .00000412  00000+0  96626-3 0  9998
2 56052  87.9193 257.1330 0001937 106.5297 253.6050 13.21823896149501
ONEWEB-0551             
1 56053U 23043H   26102.21352714  .00000079  00000+0  17619-3 0  9999
2 56053  87.8931 272.3911 0001892  85.9663 274.1684 13.15546971147724
ONEWEB-0552             
1 56054U 23043J   26102.14077948  .00000136  00000+0  29751-3 0  9999
2 56054  87.9190 257.1411 0002011  96.4214 263.7149 13.21825542149501
ONEWEB-0553             
1 56055U 23043K   26102.14057335  .00000069  00000+0  14651-3 0  9996
2 56055  87.9059 241.8963 0001498 110.0438 250.0854 13.16593491150285
ONEWEB-0554             
1 56056U 23043L   26102.12790538  .00000010  00000+0 -84763-5 0  9994
2 56056  87.9054 241.9086 0001887 111.1467 248.9866 13.16592618150261
ONEWEB-0555             
1 56057U 23043M   26102.08989406  .00000011  00000+0 -40167-5 0  9995
2 56057  87.9061 241.9017 0001290 111.5385 248.5883 13.16596413150267
ONEWEB-0557             
1 56058U 23043N   26102.10415520 -.00000002  00000+0 -37773-4 0  9999
2 56058  87.9055 241.9100 0001942 140.9425 219.1847 13.16593234150261
ONEWEB-0558             
1 56059U 23043P   26102.13404531  .00000784  00000+0  18667-2 0  9997
2 56059  87.9195 257.1361 0002047  86.4712 273.6657 13.21823779149511
