[{"OBJECT_NAME":"ONEWEB-0675","OBJECT_ID":"2023-029AQ","EPOCH":"2026-04-12T02:16:46.575264","MEAN_MOTION":13.197273,"ECCENTRICITY":0.0001571,"INCLINATION":87.9172,"RA_OF_ASC_NODE":318.1581,"ARG_OF_PERICENTER":76.2187,"MEAN_ANOMALY":283.9121,"EPHEMERIS_TYPE":0,"CLASSIFICATION_TYPE":"U","NORAD_CAT_ID":55834,"ELEMENT_SET_NO":999,"REV_AT_EPOCH":15020,"BSTAR":0.00030146000000000003,"MEAN_MOTION_DOT":1.34e-06,"MEAN_MOTION_DDOT":0.0},{"OBJECT_NAME":"ONEWEB-0720","OBJECT_ID":"2023-029AR","EPOCH":"2026-04-12T02:05:24.137952","MEAN_MOTION":13.19728029,"ECCENTRICITY":0.0002077,"INCLINATION":87.9168,"RA_OF_ASC_NODE":318.1601,"ARG_OF_PERICENTER":82.6466,"MEAN_ANOMALY":277.4902,"EPHEMERIS_TYPE":0,"CLASSIFICATION_TYPE":"U","NORAD_CAT_ID":55835,"ELEMENT_SET_NO":999,"REV_AT_EPOCH":15012,"BSTAR":0.00043380999999999997,"MEAN_MOTION_DOT":1.87e-06,"MEAN_MOTION_DDOT":0.0},{"OBJECT_NAME":"ONEWEB-0537","OBJECT_ID":"2023-043A","EPOCH":"2026-04-12T01:51:13.921344","MEAN_MOTION":13.16593788,"ECCENTRICITY":0.0001587,"INCLINATION":87.906,"RA_OF_ASC_NODE":241.9061,"ARG_OF_PERICENTER":100.7878,"MEAN_ANOMALY":259.3432,"EPHEMERIS_TYPE":0,"CLASSIFICATION_TYPE":"U","NORAD_CAT_ID":56046,"ELEMENT_SET_NO":999,"REV_AT_EPOCH":15026,"BSTAR":0.00015374,"MEAN_MOTION_DOT":7.2e-07,"MEAN_MOTION_DDOT":0.0},{"OBJECT_NAME":"ONEWEB-0538","OBJECT_ID":"2023-043B","EPOCH":"2026-04-12T03:31:29.888544","MEAN_MOTION":13.16591068,"ECCENTRICITY":0.0001744,"INCLINATION":87.9059,"RA_OF_ASC_NODE":241.8941,"ARG_OF_PERICENTER":92.6172,"MEAN_ANOMALY":267.5158,"EPHEMERIS_TYPE":0,"CLASSIFICATION_TYPE":"U","NORAD_CAT_ID":56047,"ELEMENT_SET_NO":999,"REV_AT_EPOCH":15028,"BSTAR":0.00020221,"MEAN_MOTION_DOT":9e-07,"MEAN_MOTION_DDOT":0.0},{"OBJECT_NAME":"ONEWEB-0546","OBJECT_ID":"2023-043C","EPOCH":"2026-04-11T18:06:07.215552","MEAN_MOTION":13.16592354,"ECCENTRICITY":0.0001114,"INCLINATION":87.9059,"RA_OF_ASC_NODE":241.9715,"ARG_OF_PERICENTER":108.2837,"MEAN_ANOMALY":251.8415,"EPHEMERIS_TYPE":0,"CLASSIFICATION_TYPE":"U","NORAD_CAT_ID":56048,"ELEMENT_SET_NO":999,"REV_AT_EPOCH":15022,"BSTAR":-2.2337000000000003e-05,"MEAN_MOTION_DOT":4e-08,"MEAN_MOTION_DDOT":0.0},{"OBJECT_NAME":"ONEWEB-0547","OBJECT_ID":"2023-043D","EPOCH":"2026-04-12T03:57:48.351744","MEAN_MOTION":13.21824068,"ECCENTRICITY":0.000194,"INCLINATION":87.9204,"RA_OF_ASC_NODE":257.1221,"ARG_OF_PERICENTER":93.4461,"MEAN_ANOMALY":266.6895,"EPHEMERIS_TYPE":0,"CLASSIFICATION_TYPE":"U","NORAD_CAT_ID":56049,"ELEMENT_SET_NO":999,"REV_AT_EPOCH":14950,"BSTAR":7.2134e-05,"MEAN_MOTION_DOT":4.3e-07,"MEAN_MOTION_DDOT":0.0},{"OBJECT_NAME":"ONEWEB-0548","OBJECT_ID":"2023-043E","EPOCH":"2026-04-12T07:27:30.373344","MEAN_MOTION":13.16597174,"ECCENTRICITY":0.0002069,"INCLINATION":87.9056,"RA_OF_ASC_NODE":241.8587,"ARG_OF_PERICENTER":114.1926,"MEAN_ANOMALY":245.9422,"EPHEMERIS_TYPE":0,"CLASSIFICATION_TYPE":"U","NORAD_CAT_ID":56050,"ELEMENT_SET_NO":999,"REV_AT_EPOCH":15029,"BSTAR":0.00035656,"MEAN_MOTION_DOT":1.49e-06,"MEAN_MOTION_DDOT":0.0},{"OBJECT_NAME":"ONEWEB-0549","OBJECT_ID":"2023-043F","EPOCH":"2026-04-12T03:49:22.738944","MEAN_MOTION":13.21826121,"ECCENTRICITY":0.0001838,"INCLINATION":87.919,"RA_OF_ASC_NODE":257.1342,"ARG_OF_PERICENTER":90.1496,"MEAN_ANOMALY":269.9848,"EPHEMERIS_TYPE":0,"CLASSIFICATION_TYPE":"U","NORAD_CAT_ID":56051,"ELEMENT_SET_NO":999,"REV_AT_EPOCH":14950,"BSTAR":0.00037032,"MEAN_MOTION_DOT":1.66e-06,"MEAN_MOTION_DDOT":0.0},{"OBJECT_NAME":"ONEWEB-0550","OBJECT_ID":"2023-043G","EPOCH":"2026-04-12T03:29:59.416512","MEAN_MOTION":13.21823896,"ECCENTRICITY":0.0001937,"INCLINATION":87.9193,"RA_OF_ASC_NODE":257.133,"ARG_OF_PERICENTER":106.5297,"MEAN_ANOMALY":253.605,"EPHEMERIS_TYPE":0,"CLASSIFICATION_TYPE":"U","NORAD_CAT_ID":56052,"ELEMENT_SET_NO":999,"REV_AT_EPOCH":14950,"BSTAR":0.00096626,"MEAN_MOTION_DOT":4.12e-06,"MEAN_MOTION_DDOT":0.0},{"OBJECT_NAME":"ONEWEB-0551","OBJECT_ID":"2023-043H","EPOCH":"2026-04-12T05:07:28.744896","MEAN_MOTION":13.15546971,"ECCENTRICITY":0.0001892,"INCLINATION":87.8931,"RA_OF_ASC_NODE":272.3911,"ARG_OF_PERICENTER":85.9663,"MEAN_ANOMALY":274.1684,"EPHEMERIS_TYPE":0,"CLASSIFICATION_TYPE":"U","NORAD_CAT_ID":56053,"ELEMENT_SET_NO":999,"REV_AT_EPOCH":14772,"BSTAR":0.00017619,"MEAN_MOTION_DOT":7.9e-07,"MEAN_MOTION_DDOT":0.0},{"OBJECT_NAME":"ONEWEB-0552","OBJECT_ID":"2023-043J","EPOCH":"2026-04-12T03:22:43.347072","MEAN_MOTION":13.21825542,"ECCENTRICITY":0.0002011,"INCLINATION":87.919,"RA_OF_ASC_NODE":257.1411,"ARG_OF_PERICENTER":96.4214,"MEAN_ANOMALY":263.7149,"EPHEMERIS_TYPE":0,"CLASSIFICATION_TYPE":"U","NORAD_CAT_ID":56054,"ELEMENT_SET_NO":999,"REV_AT_EPOCH":14950,"BSTAR":0.00029751,"MEAN_MOTION_DOT":1.36e-06,"MEAN_MOTION_DDOT":0.0},{"OBJECT_NAME":"ONEWEB-0553","OBJECT_ID":"2023-043K","EPOCH":"2026-04-12T03:22:25.537440","MEAN_MOTION":13.16593491,"ECCENTRICITY":0.0001498,"INCLINATION":87.9059,"RA_OF_ASC_NODE":241.8963,"ARG_OF_PERICENTER":110.0438,"MEAN_ANOMALY":250.0854,"EPHEMERIS_TYPE":0,"CLASSIFICATION_TYPE":"U","NORAD_CAT_ID":56055,"ELEMENT_SET_NO":999,"REV_AT_EPOCH":15028,"BSTAR":0.00014651,"MEAN_MOTION_DOT":6.9e-07,"MEAN_MOTION_DDOT":0.0},{"OBJECT_NAME":"ONEWEB-0554","OBJECT_ID":"2023-043L","EPOCH":"2026-04-12T03:04:11.024832","MEAN_MOTION":13.16592618,"ECCENTRICITY":0.0001887,"INCLINATION":87.9054,"RA_OF_ASC_NODE":241.9086,"ARG_OF_PERICENTER":111.1467,"MEAN_ANOMALY":248.9866,"EPHEMERIS_TYPE":0,"CLASSIFICATION_TYPE":"U","NORAD_CAT_ID":56056,"ELEMENT_SET_NO":999,"REV_AT_EPOCH":15026,"BSTAR":-8.4763e-06,"MEAN_MOTION_DOT":1e-07,"MEAN_MOTION_DDOT":0.0},{"OBJECT_NAME":"ONEWEB-0555","OBJECT_ID":"2023-043M","EPOCH":"2026-04-12T02:09:26.846784","MEAN_MOTION":13.16596413,"ECCENTRICITY":0.000129,"INCLINATION":87.9061,"RA_OF_ASC_NODE":241.9017,"ARG_OF_PERICENTER":111.5385,"MEAN_ANOMALY":248.5883,"EPHEMERIS_TYPE":0,"CLASSIFICATION_TYPE":"U","NORAD_CAT_ID":56057,"ELEMENT_SET_NO":999,"REV_AT_EPOCH":15026,"BSTAR":-4.016700000000001e-06,"MEAN_MOTION_DOT":1.1e-07,"MEAN_MOTION_DDOT":0.0},{"OBJECT_NAME":"ONEWEB-0557","OBJECT_ID":"2023-043N","EPOCH":"2026-04-12T02:29:59.009280","MEAN_MOTION":13.16593234,"ECCENTRICITY":0.0001942,"INCLINATION":87.9055,"RA_OF_ASC_NODE":241.91,"ARG_OF_PERICENTER":140.9425,"MEAN_ANOMALY":219.1847,"EPHEMERIS_TYPE":0,"CLASSIFICATION_TYPE":"U","NORAD_CAT_ID":56058,"ELEMENT_SET_NO":999,"REV_AT_EPOCH":15026,"BSTAR":-3.7773000000000006e-05,"MEAN_MOTION_DOT":-2e-08,"MEAN_MOTION_DDOT":0.0},{"OBJECT_NAME":"ONEWEB-0558","OBJECT_ID":"2023-043P","EPOCH":"2026-04-12T03:13:01.514784","MEAN_MOTION":13.21823779,"ECCENTRICITY":0.0002047,"INCLINATION":87.9195,"RA_OF_ASC_NODE":257.1361,"ARG_OF_PERICENTER":86.4712,"MEAN_ANOMALY":273.6657,"EPHEMERIS_TYPE":0,"CLASSIFICATION_TYPE":"U","NORAD_CAT_ID":56059,"ELEMENT_SET_NO":999,"REV_AT_EPOCH":14951,"BSTAR":0.0018667,"MEAN_MOTION_DOT":7.84e-06,"MEAN_MOTION_DDOT":0.0}]